NORAD_CAT_ID,OBJECT_NAME,OBJECT_TYPE,EPOCH,MEAN_MOTION,ECCENTRICITY,INCLINATION,RA_OF_ASC_NODE,ARG_OF_PERICENTER,MEAN_ANOMALY,BSTAR,MEAN_MOTION_DOT,MEAN_MOTION_DDOT,TLE_LINE0,TLE_LINE1,TLE_LINE2,SEMIMAJOR_AXIS,PERIOD,APOGEE,PERIGEE,DECAYED
52684.0,STARLINK-4014,PAYLOAD,2023-06-02 19:04:53,15.08837205,0.0001328,53.2179,2.202,101.0912,259.0229,-5.027e-05,-1.088e-05,0.0,0 STARLINK-4014,1 52684U 22053AE  23153.79505896 -.00001088  00000-0 -50270-4 0  9997,2 52684  53.2179   2.2020 0001328 101.0912 259.0229 15.08837205 58144,6917.889,95.438,540.673,538.835,0.0
52684.0,STARLINK-4014,PAYLOAD,2023-06-02 20:40:16,15.08839042,0.0001214,53.2182,1.9054,86.4523,273.6608,-3.3455e-05,-8.2e-06,0.0,0 STARLINK-4014,1 52684U 22053AE  23153.86129787 -.00000820  00000-0 -33455-4 0  9995,2 52684  53.2182   1.9054 0001214  86.4523 273.6608 15.08839042 58536,6917.883,95.438,540.588,538.908,0.0
52684.0,STARLINK-4014,PAYLOAD,2023-06-03 14:09:30,15.08842842,0.0001146,53.2179,358.6356,85.9663,274.146,2.6333e-05,1.31e-06,0.0,0 STARLINK-4014,1 52684U 22053AE  23154.58993528  .00000131  00000-0  26333-4 0  9997,2 52684  53.2179 358.6356 0001146  85.9663 274.1460 15.08842842 58648,6917.872,95.437,540.529,538.944,0.0
52684.0,STARLINK-4014,PAYLOAD,2023-06-03 18:55:39,15.08837961,0.0001211,53.2179,357.7437,85.8872,274.2259,0.00021704,3.168e-05,0.0,0 STARLINK-4014,1 52684U 22053AE  23154.78865292  .00003168  00000-0  21704-3 0  9994,2 52684  53.2179 357.7437 0001211  85.8872 274.2259 15.08837961 58296,6917.887,95.438,540.589,538.914,0.0
52684.0,STARLINK-4014,PAYLOAD,2023-06-03 20:31:02,15.08849981,0.0001146,53.2176,357.4468,86.3614,273.7509,0.00010253,1.345e-05,0.0,0 STARLINK-4014,1 52684U 22053AE  23154.85488894  .00001345  00000-0  10253-3 0  9993,2 52684  53.2176 357.4468 0001146  86.3614 273.7509 15.08849981 58681,6917.85,95.437,540.508,538.922,0.0
52684.0,STARLINK-4014,PAYLOAD,2023-06-04 06:03:21,15.08840959,0.0001037,53.2171,355.6633,82.7762,277.3348,4.5947e-05,4.44e-06,0.0,0 STARLINK-4014,1 52684U 22053AE  23155.25233589  .00000444  00000-0  45947-4 0  9995,2 52684  53.2171 355.6633 0001037  82.7762 277.3348 15.08840959 58365,6917.877,95.437,540.46,539.025,0.0
52684.0,STARLINK-4014,PAYLOAD,2023-06-04 14:00:18,15.08776886,0.0001436,53.2171,354.1763,90.1997,269.916,0.00080936,0.00012594,0.0,0 STARLINK-4014,1 52684U 22053AE  23155.58354884  .00012594  00000-0  80936-3 0  9998,2 52684  53.2171 354.1763 0001436  90.1997 269.9160 15.08776886 58792,6918.073,95.442,540.932,538.945,0.0
52684.0,STARLINK-4014,PAYLOAD,2023-06-04 20:21:50,15.08838716,0.0001138,53.2178,352.9872,87.5925,272.5197,0.00010046,1.311e-05,0.0,0 STARLINK-4014,1 52684U 22053AE  23155.84849846  .00001311  00000-0  10046-3 0  9994,2 52684  53.2178 352.9872 0001138  87.5925 272.5197 15.08838716 58832,6917.884,95.438,540.537,538.962,0.0
52684.0,STARLINK-4014,PAYLOAD,2023-06-05 05:54:09,15.08838127,0.0001146,53.2179,351.2033,87.8725,272.2399,8.013e-05,9.88e-06,0.0,0 STARLINK-4014,1 52684U 22053AE  23156.24594003  .00000988  00000-0  80130-4 0  9992,2 52684  53.2179 351.2033 0001146  87.8725 272.2399 15.08838127 58516,6917.886,95.438,540.544,538.958,0.0
52684.0,STARLINK-4014,PAYLOAD,2023-06-05 21:48:00,15.08842976,0.0001118,53.2177,348.2291,90.7187,269.3934,1.736e-05,-1.1e-07,0.0,0 STARLINK-4014,1 52684U 22053AE  23156.90833902 -.00000011  00000-0  17360-4 0  9992,2 52684  53.2177 348.2291 0001118  90.7187 269.3934 15.08842976 58991,6917.871,95.437,540.51,538.963,0.0
52684.0,STARLINK-4014,PAYLOAD,2023-06-06 05:44:56,15.08841508,0.0001111,53.2181,346.7423,87.4055,272.7064,-1.9793e-05,-6.03e-06,0.0,0 STARLINK-4014,1 52684U 22053AE  23157.23954073 -.00000603  00000-0 -19793-4 0  9992,2 52684  53.2181 346.7423 0001111  87.4055 272.7064 15.08841508 59045,6917.876,95.437,540.509,538.972,0.0
52684.0,STARLINK-4014,PAYLOAD,2023-06-07 05:35:43,15.08844085,0.0001249,53.2188,342.279,77.336,282.7771,-2.2894e-05,-6.52e-06,0.0,0 STARLINK-4014,1 52684U 22053AE  23158.23314132 -.00000652  00000-0 -22894-4 0  9999,2 52684  53.2188 342.2790 0001249  77.3360 282.7771 15.08844085 58812,6917.868,95.437,540.597,538.869,0.0
52684.0,STARLINK-4014,PAYLOAD,2023-06-07 19:54:11,15.08843343,0.0001087,53.2181,339.603,84.1777,275.9339,8.2548e-05,1.026e-05,0.0,0 STARLINK-4014,1 52684U 22053AE  23158.82930048  .00001026  00000-0  82548-4 0  9990,2 52684  53.2181 339.6030 0001087  84.1777 275.9339 15.08843343 59282,6917.87,95.437,540.487,538.983,0.0
52684.0,STARLINK-4014,PAYLOAD,2023-06-08 11:48:03,15.08843561,0.0001356,53.2181,336.6321,77.1192,282.9951,4.4408e-05,4.19e-06,0.0,0 STARLINK-4014,1 52684U 22053AE  23159.49170245  .00000419  00000-0  44408-4 0  9997,2 52684  53.2181 336.6321 0001356  77.1192 282.9951 15.08843561 59385,6917.87,95.437,540.673,538.796,0.0
52684.0,STARLINK-4014,PAYLOAD,2023-06-08 18:09:35,15.0885019,0.0001019,53.2174,335.4415,85.5815,274.5294,8.4275e-05,1.054e-05,0.0,0 STARLINK-4014,1 52684U 22053AE  23159.75665621  .00001054  00000-0  84275-4 0  9995,2 52684  53.2174 335.4415 0001019  85.5815 274.5294 15.08850190 59045,6917.849,95.437,540.419,539.009,0.0
52684.0,STARLINK-4014,PAYLOAD,2023-06-09 11:38:50,15.08839672,0.0001048,53.2172,332.1713,78.0709,282.0401,9.0942e-05,1.16e-05,0.0,0 STARLINK-4014,1 52684U 22053AE  23160.48530117  .00001160  00000-0  90942-4 0  9994,2 52684  53.2172 332.1713 0001048  78.0709 282.0401 15.08839672 59539,6917.881,95.438,540.471,539.021,0.0
52684.0,STARLINK-4014,PAYLOAD,2023-06-09 18:00:22,15.08844676,0.0001051,53.2172,330.9817,80.2059,279.9051,0.00012759,1.744e-05,0.0,0 STARLINK-4014,1 52684U 22053AE  23160.75025665  .00001744  00000-0  12759-3 0  9998,2 52684  53.2172 330.9817 0001051  80.2059 279.9051 15.08844676 59195,6917.866,95.437,540.458,539.004,0.0
52684.0,STARLINK-4014,PAYLOAD,2023-06-10 19:26:32,15.08859905,0.0001301,53.2179,326.2239,99.0152,261.0988,-0.00030291,-5.108e-05,0.0,0 STARLINK-4014,1 52684U 22053AE  23161.81009660 -.00005108  00000-0 -30291-3 0  9994,2 52684  53.2179 326.2239 0001301  99.0152 261.0988 15.08859905 59730,6917.82,95.436,540.585,538.785,0.0
52684.0,STARLINK-4014,PAYLOAD,2023-06-10 22:37:18,15.08842739,0.0001104,53.2174,325.6297,79.8982,280.2134,3.8145e-05,3.19e-06,0.0,0 STARLINK-4014,1 52684U 22053AE  23161.94257993  .00000319  00000-0  38145-4 0  9996,2 52684  53.2174 325.6297 0001104  79.8982 280.2134 15.08842739 59373,6917.872,95.437,540.501,538.973,0.0
52684.0,STARLINK-4014,PAYLOAD,2023-06-11 03:23:29,15.08830341,8.91e-05,53.2183,324.7372,102.7588,257.3504,-6.2408e-05,-1.28e-05,0.0,0 STARLINK-4014,1 52684U 22053AE  23162.14130960 -.00001280  00000-0 -62408-4 0  9992,2 52684  53.2183 324.7372 0000891 102.7588 257.3504 15.08830341 59403,6917.91,95.438,540.391,539.159,0.0
52684.0,STARLINK-4014,PAYLOAD,2023-06-11 11:20:24,15.08830352,7.35e-05,53.218,323.2502,102.507,257.6005,-4.0596e-05,-9.33e-06,0.0,0 STARLINK-4014,1 52684U 22053AE  23162.47251007 -.00000933  00000-0 -40596-4 0  9992,2 52684  53.2180 323.2502 0000735 102.5070 257.6005 15.08830352 59838,6917.91,95.438,540.283,539.266,0.0
52684.0,STARLINK-4014,PAYLOAD,2023-06-11 19:17:19,15.08844683,0.0001049,53.2177,321.7631,90.0095,270.1017,5.6523e-05,6.12e-06,0.0,0 STARLINK-4014,1 52684U 22053AE  23162.80369932  .00000612  00000-0  56523-4 0  9995,2 52684  53.2177 321.7631 0001049  90.0095 270.1017 15.08844683 59887,6917.866,95.437,540.457,539.005,0.0
52684.0,STARLINK-4014,PAYLOAD,2023-06-12 03:14:15,15.08840206,0.0001004,53.2181,320.2763,86.0942,274.0165,8.6657e-05,1.092e-05,0.0,0 STARLINK-4014,1 52684U 22053AE  23163.13490163  .00001092  00000-0  86657-4 0  9997,2 52684  53.2181 320.2763 0001004  86.0942 274.0165 15.08840206 59557,6917.88,95.438,540.439,539.05,0.0
52684.0,STARLINK-4014,PAYLOAD,2023-06-12 17:32:44,15.08835434,9.51e-05,53.2183,317.6001,102.0851,258.0248,3.9826e-05,3.46e-06,0.0,0 STARLINK-4014,1 52684U 22053AE  23163.73106737  .00000346  00000-0  39826-4 0  9991,2 52684  53.2183 317.6001 0000951 102.0851 258.0248 15.08835434 59643,6917.894,95.438,540.417,539.101,0.0
52684.0,STARLINK-4014,PAYLOAD,2023-06-13 09:26:35,15.08830189,0.0001018,53.2179,314.6275,98.6666,261.4441,0.00011974,1.618e-05,0.0,0 STARLINK-4014,1 52684U 22053AE  23164.39347175  .00001618  00000-0  11974-3 0  9993,2 52684  53.2179 314.6275 0001018  98.6666 261.4441 15.08830189 60127,6917.91,95.438,540.48,539.071,0.0
52684.0,STARLINK-4014,PAYLOAD,2023-06-13 18:58:54,15.08840767,0.000116,53.2181,312.8441,112.1949,247.9167,6.0315e-05,6.72e-06,0.0,0 STARLINK-4014,1 52684U 22053AE  23164.79090667  .00000672  00000-0  60315-4 0  9991,2 52684  53.2181 312.8441 0001160 112.1949 247.9167 15.08840767 59809,6917.878,95.438,540.546,538.941,0.0
52684.0,STARLINK-4014,PAYLOAD,2023-06-14 02:55:50,15.08840484,9.55e-05,53.2178,311.3575,96.157,263.9531,7.9504e-05,9.78e-06,0.0,0 STARLINK-4014,1 52684U 22053AE  23165.12210693  .00000978  00000-0  79504-4 0  9991,2 52684  53.2178 311.3575 0000955  96.1570 263.9531 15.08840484 60237,6917.879,95.438,540.405,539.083,0.0
52684.0,STARLINK-4014,PAYLOAD,2023-06-15 02:46:37,15.08838279,0.0001075,53.2186,306.8952,84.0831,276.0283,5.6871e-05,6.17e-06,0.0,0 STARLINK-4014,1 52684U 22053AE  23166.11571052  .00000617  00000-0  56871-4 0  9992,2 52684  53.2186 306.8952 0001075  84.0831 276.0283 15.08838279 60007,6917.886,95.438,540.494,539.007,0.0
52684.0,STARLINK-4014,PAYLOAD,2023-06-15 09:08:10,15.08821935,0.0001083,53.2186,305.7048,93.583,266.5286,0.00031433,4.716e-05,0.0,0 STARLINK-4014,1 52684U 22053AE  23166.38067432  .00004716  00000-0  31433-3 0  9993,2 52684  53.2186 305.7048 0001083  93.5830 266.5286 15.08821935 60046,6917.936,95.439,540.55,539.051,0.0
52684.0,STARLINK-4014,PAYLOAD,2023-06-15 15:29:42,15.08845835,0.0001152,53.2187,304.5158,85.0293,275.083,7.6046e-05,9.23e-06,0.0,0 STARLINK-4014,1 52684U 22053AE  23166.64562596  .00000923  00000-0  76046-4 0  9999,2 52684  53.2187 304.5158 0001152  85.0293 275.0830 15.08845835 60081,6917.863,95.437,540.524,538.931,0.0
